*******************************************************************************
Ephemeris / WWW_USER Mon Mar 10 14:37:52 2025 Pasadena, USA      / Horizons    
*******************************************************************************
Target body name: 468861 (2013 LU28)              {source: JPL#36}
Center body name: Earth (399)                     {source: DE441}
Center-site name: Mauna Kea
*******************************************************************************
Start time      : A.D. 2018-Oct-22 04:03:00.0000 UT      
Stop  time      : A.D. 2018-Oct-22 16:09:00.0000 UT      
Step-size       : 1 minutes
*******************************************************************************
Target pole/equ : undefined
Target radii    : undefined                                                    
Center geodetic : 204.5278, 19.8260847, 4.21024   {E-lon(deg),Lat(deg),Alt(km)}
Center cylindric: 204.5278, 6006.35451, 2151.0229 {E-lon(deg),Dxy(km),Dz(km)}
Center pole/equ : ITRF93                          {East-longitude positive}
Center radii    : 6378.137, 6378.137, 6356.752 km {Equator_a, b, pole_c}       
Target primary  : Sun
Vis. interferer : MOON (R_eq= 1737.400) km        {source: DE441}
Rel. light bend : Sun                             {source: DE441}
Rel. lght bnd GM: 1.3271E+11 km^3/s^2                                          
Small-body perts: Yes                             {source: SB441-N16}
Atmos refraction: NO (AIRLESS)
RA format       : HMS
Time format     : CAL 
Calendar mode   : Mixed Julian/Gregorian
RTS-only print  : NO       
EOP file        : eop.250307.p250603                                           
EOP coverage    : DATA-BASED 1962-JAN-20 TO 2025-MAR-07. PREDICTS-> 2025-JUN-02
Units conversion: 1 au= 149597870.700 km, c= 299792.458 km/s, 1 day= 86400.0 s 
Table cut-offs 1: Elevation (-90.0deg=NO ),Airmass (>38.000=NO), Daylight (YES)
Table cut-offs 2: Solar elongation (  0.0,180.0=NO ),Local Hour Angle( 0.0=NO )
Table cut-offs 3: RA/DEC angular rate (     0.0=NO )                           
*******************************************************************************
Initial IAU76/J2000 heliocentric ecliptic osculating elements (au, days, deg.):
  EPOCH=  2459491.5 ! 2021-Oct-04.00 (TDB)         Residual RMS= .14077        
   EC= .9545524767334098   QR= 8.741840911970645   TP= 2460480.7801673855      
   OM= 275.9923561772391   W=  152.9171912923278   IN= 125.3473013584344       
  Equivalent ICRF heliocentric cartesian coordinates (au, au/d):
   X=-6.020062670108302E+00  Y=-1.182282064265113E+00  Z= 8.330249486138040E+00
  VX= 2.086988006100027E-03 VY= 7.079392581348984E-03 VZ=-1.092497303529149E-03
Asteroid physical parameters (km, seconds, rotational period in hours):        
   GM= n.a.                RAD= n.a.               ROTPER= n.a.                
   H= 8.24                 G= .150                 B-V= n.a.                   
                           ALBEDO= n.a.            STYP= n.a.                  
*******************************************************************************
 Date__(UT)__HR:MN     R.A._________(ICRF)_________DEC
******************************************************
$$SOE
 2018-Oct-22 12:15  m  15 06 21.355030 +34 19 32.38257
 2018-Oct-22 12:16  m  15 06 21.364601 +34 19 32.34455
 2018-Oct-22 12:17  m  15 06 21.374172 +34 19 32.30655
 2018-Oct-22 12:18  m  15 06 21.383743 +34 19 32.26855
 2018-Oct-22 12:19  m  15 06 21.393314 +34 19 32.23056
 2018-Oct-22 12:20  m  15 06 21.402884 +34 19 32.19257
 2018-Oct-22 12:21  m  15 06 21.412455 +34 19 32.15460
 2018-Oct-22 12:22  m  15 06 21.422025 +34 19 32.11663
 2018-Oct-22 12:23  m  15 06 21.431595 +34 19 32.07866
 2018-Oct-22 12:24  m  15 06 21.441165 +34 19 32.04071
 2018-Oct-22 12:25  m  15 06 21.450735 +34 19 32.00276
 2018-Oct-22 12:26  m  15 06 21.460304 +34 19 31.96482
 2018-Oct-22 12:27  m  15 06 21.469874 +34 19 31.92688
 2018-Oct-22 12:28  m  15 06 21.479443 +34 19 31.88896
 2018-Oct-22 12:29  m  15 06 21.489012 +34 19 31.85104
 2018-Oct-22 12:30  m  15 06 21.498581 +34 19 31.81312
 2018-Oct-22 12:31  m  15 06 21.508150 +34 19 31.77522
 2018-Oct-22 12:32  m  15 06 21.517718 +34 19 31.73732
 2018-Oct-22 12:33  m  15 06 21.527286 +34 19 31.69943
 2018-Oct-22 12:34  m  15 06 21.536855 +34 19 31.66154
 2018-Oct-22 12:35  m  15 06 21.546423 +34 19 31.62366
 2018-Oct-22 12:36  m  15 06 21.555990 +34 19 31.58579
 2018-Oct-22 12:37  m  15 06 21.565558 +34 19 31.54793
 2018-Oct-22 12:38  m  15 06 21.575125 +34 19 31.51007
 2018-Oct-22 12:39  m  15 06 21.584692 +34 19 31.47223
 2018-Oct-22 12:40  m  15 06 21.594259 +34 19 31.43438
 2018-Oct-22 12:41  m  15 06 21.603826 +34 19 31.39655
 2018-Oct-22 12:42  m  15 06 21.613392 +34 19 31.35872
 2018-Oct-22 12:43  m  15 06 21.622958 +34 19 31.32090
 2018-Oct-22 12:44  m  15 06 21.632524 +34 19 31.28308
 2018-Oct-22 12:45  m  15 06 21.642090 +34 19 31.24528
 2018-Oct-22 12:46  m  15 06 21.651656 +34 19 31.20748
 2018-Oct-22 12:47  m  15 06 21.661221 +34 19 31.16968
 2018-Oct-22 12:48  m  15 06 21.670786 +34 19 31.13190
 2018-Oct-22 12:49  m  15 06 21.680351 +34 19 31.09412
 2018-Oct-22 12:50  m  15 06 21.689915 +34 19 31.05635
 2018-Oct-22 12:51  m  15 06 21.699479 +34 19 31.01858
 2018-Oct-22 12:52  m  15 06 21.709043 +34 19 30.98082
 2018-Oct-22 12:53  m  15 06 21.718607 +34 19 30.94307
 2018-Oct-22 12:54  m  15 06 21.728171 +34 19 30.90533
 2018-Oct-22 12:55  m  15 06 21.737734 +34 19 30.86759
 2018-Oct-22 12:56  m  15 06 21.747297 +34 19 30.82986
 2018-Oct-22 12:57  m  15 06 21.756859 +34 19 30.79213
 2018-Oct-22 12:58  m  15 06 21.766422 +34 19 30.75442
 2018-Oct-22 12:59  m  15 06 21.775984 +34 19 30.71671
 2018-Oct-22 13:00  m  15 06 21.785545 +34 19 30.67900
 2018-Oct-22 13:01  m  15 06 21.795107 +34 19 30.64131
 2018-Oct-22 13:02  m  15 06 21.804668 +34 19 30.60362
 2018-Oct-22 13:03  m  15 06 21.814229 +34 19 30.56594
 2018-Oct-22 13:04  m  15 06 21.823790 +34 19 30.52826
 2018-Oct-22 13:05  m  15 06 21.833350 +34 19 30.49059
 2018-Oct-22 13:06  m  15 06 21.842910 +34 19 30.45293
 2018-Oct-22 13:07  m  15 06 21.852469 +34 19 30.41527
 2018-Oct-22 13:08  m  15 06 21.862029 +34 19 30.37762
 2018-Oct-22 13:09  m  15 06 21.871588 +34 19 30.33998
 2018-Oct-22 13:10  m  15 06 21.881147 +34 19 30.30235
 2018-Oct-22 13:11  m  15 06 21.890705 +34 19 30.26472
 2018-Oct-22 13:12  m  15 06 21.900263 +34 19 30.22709
 2018-Oct-22 13:13  m  15 06 21.909821 +34 19 30.18948
 2018-Oct-22 13:14  m  15 06 21.919378 +34 19 30.15187
 2018-Oct-22 13:15  m  15 06 21.928935 +34 19 30.11427
 2018-Oct-22 13:16  m  15 06 21.938492 +34 19 30.07667
 2018-Oct-22 13:17  m  15 06 21.948048 +34 19 30.03909
 2018-Oct-22 13:18  m  15 06 21.957604 +34 19 30.00150
 2018-Oct-22 13:19  m  15 06 21.967160 +34 19 29.96393
 2018-Oct-22 13:20  m  15 06 21.976715 +34 19 29.92636
 2018-Oct-22 13:21  m  15 06 21.986270 +34 19 29.88880
 2018-Oct-22 13:22  m  15 06 21.995824 +34 19 29.85124
 2018-Oct-22 13:23  m  15 06 22.005379 +34 19 29.81369
 2018-Oct-22 13:24  m  15 06 22.014932 +34 19 29.77615
 2018-Oct-22 13:25  m  15 06 22.024486 +34 19 29.73862
 2018-Oct-22 13:26  m  15 06 22.034039 +34 19 29.70109
 2018-Oct-22 13:27  m  15 06 22.043592 +34 19 29.66356
 2018-Oct-22 13:28  m  15 06 22.053144 +34 19 29.62605
 2018-Oct-22 13:29  m  15 06 22.062696 +34 19 29.58854
 2018-Oct-22 13:30  m  15 06 22.072247 +34 19 29.55104
 2018-Oct-22 13:31  m  15 06 22.081798 +34 19 29.51354
 2018-Oct-22 13:32  m  15 06 22.091349 +34 19 29.47605
 2018-Oct-22 13:33  m  15 06 22.100899 +34 19 29.43857
 2018-Oct-22 13:34  m  15 06 22.110449 +34 19 29.40109
 2018-Oct-22 13:35  m  15 06 22.119999 +34 19 29.36362
 2018-Oct-22 13:36  m  15 06 22.129548 +34 19 29.32615
 2018-Oct-22 13:37  m  15 06 22.139097 +34 19 29.28869
 2018-Oct-22 13:38  m  15 06 22.148645 +34 19 29.25124
 2018-Oct-22 13:39  m  15 06 22.158193 +34 19 29.21380
 2018-Oct-22 13:40  m  15 06 22.167740 +34 19 29.17636
 2018-Oct-22 13:41  m  15 06 22.177287 +34 19 29.13893
 2018-Oct-22 13:42  m  15 06 22.186834 +34 19 29.10150
 2018-Oct-22 13:43  m  15 06 22.196380 +34 19 29.06408
 2018-Oct-22 13:44  m  15 06 22.205926 +34 19 29.02667
 2018-Oct-22 13:45  m  15 06 22.215471 +34 19 28.98926
 2018-Oct-22 13:46  m  15 06 22.225016 +34 19 28.95186
 2018-Oct-22 13:47  m  15 06 22.234560 +34 19 28.91446
 2018-Oct-22 13:48  m  15 06 22.244104 +34 19 28.87707
 2018-Oct-22 13:49  m  15 06 22.253648 +34 19 28.83969
 2018-Oct-22 13:50  m  15 06 22.263191 +34 19 28.80232
 2018-Oct-22 13:51  m  15 06 22.272733 +34 19 28.76495
 2018-Oct-22 13:52  m  15 06 22.282276 +34 19 28.72758
 2018-Oct-22 13:53  m  15 06 22.291817 +34 19 28.69022
 2018-Oct-22 13:54  m  15 06 22.301358 +34 19 28.65287
 2018-Oct-22 13:55  m  15 06 22.310899 +34 19 28.61553
 2018-Oct-22 13:56  m  15 06 22.320439 +34 19 28.57819
 2018-Oct-22 13:57  m  15 06 22.329979 +34 19 28.54085
 2018-Oct-22 13:58  m  15 06 22.339519 +34 19 28.50353
 2018-Oct-22 13:59  m  15 06 22.349057 +34 19 28.46621
 2018-Oct-22 14:00  m  15 06 22.358596 +34 19 28.42889
 2018-Oct-22 14:01  m  15 06 22.368134 +34 19 28.39158
 2018-Oct-22 14:02  m  15 06 22.377671 +34 19 28.35428
 2018-Oct-22 14:03  m  15 06 22.387208 +34 19 28.31698
 2018-Oct-22 14:04  m  15 06 22.396744 +34 19 28.27969
 2018-Oct-22 14:05  m  15 06 22.406280 +34 19 28.24241
 2018-Oct-22 14:06  m  15 06 22.415816 +34 19 28.20513
 2018-Oct-22 14:07  m  15 06 22.425350 +34 19 28.16785
 2018-Oct-22 14:08  m  15 06 22.434885 +34 19 28.13059
 2018-Oct-22 14:09  m  15 06 22.444419 +34 19 28.09333
 2018-Oct-22 14:10  m  15 06 22.453952 +34 19 28.05607
 2018-Oct-22 14:11  m  15 06 22.463485 +34 19 28.01882
 2018-Oct-22 14:12  m  15 06 22.473017 +34 19 27.98158
 2018-Oct-22 14:13  m  15 06 22.482549 +34 19 27.94434
 2018-Oct-22 14:14  m  15 06 22.492080 +34 19 27.90711
 2018-Oct-22 14:15  m  15 06 22.501611 +34 19 27.86988
 2018-Oct-22 14:16  m  15 06 22.511141 +34 19 27.83266
 2018-Oct-22 14:17  m  15 06 22.520671 +34 19 27.79544
